{"fetched_at":"2026-07-14T06:34:21.837Z","source":"https://celestrak.org/NORAD/elements/gp.php?GROUP=oneweb&FORMAT=JSON","constellation":"oneweb","records":[{"OBJECT_NAME":"ONEWEB-0205","OBJECT_ID":"2021-031S","EPOCH":"2026-07-13T18:41:44.481984","CLASSIFICATION_TYPE":"U","MEAN_MOTION":13.14502316,"ECCENTRICITY":0.000231,"INCLINATION":87.8977,"RA_OF_ASC_NODE":284.4009,"ARG_OF_PERICENTER":96.3315,"MEAN_ANOMALY":263.8078,"EPHEMERIS_TYPE":0,"NORAD_CAT_ID":48226,"ELEMENT_SET_NO":999,"REV_AT_EPOCH":25176,"BSTAR":0.00055976,"MEAN_MOTION_DOT":0.0000022,"MEAN_MOTION_DDOT":0},{"OBJECT_NAME":"ONEWEB-0206","OBJECT_ID":"2021-031T","EPOCH":"2026-07-13T18:02:54.667104","CLASSIFICATION_TYPE":"U","MEAN_MOTION":13.1450201,"ECCENTRICITY":0.0001894,"INCLINATION":87.8969,"RA_OF_ASC_NODE":284.4067,"ARG_OF_PERICENTER":101.8859,"MEAN_ANOMALY":258.2483,"EPHEMERIS_TYPE":0,"NORAD_CAT_ID":48227,"ELEMENT_SET_NO":999,"REV_AT_EPOCH":25171,"BSTAR":-0.00020193,"MEAN_MOTION_DOT":-6.2e-7,"MEAN_MOTION_DDOT":0},{"OBJECT_NAME":"ONEWEB-0182","OBJECT_ID":"2021-031U","EPOCH":"2026-07-13T17:56:03.091200","CLASSIFICATION_TYPE":"U","MEAN_MOTION":13.14503955,"ECCENTRICITY":0.0001913,"INCLINATION":87.8969,"RA_OF_ASC_NODE":284.4138,"ARG_OF_PERICENTER":94.4618,"MEAN_ANOMALY":265.6731,"EPHEMERIS_TYPE":0,"NORAD_CAT_ID":48228,"ELEMENT_SET_NO":999,"REV_AT_EPOCH":25192,"BSTAR":-0.00046281,"MEAN_MOTION_DOT":-0.00000159,"MEAN_MOTION_DDOT":0},{"OBJECT_NAME":"ONEWEB-0186","OBJECT_ID":"2021-031V","EPOCH":"2026-07-13T18:12:03.026304","CLASSIFICATION_TYPE":"U","MEAN_MOTION":13.14503038,"ECCENTRICITY":0.0002117,"INCLINATION":87.8975,"RA_OF_ASC_NODE":284.4053,"ARG_OF_PERICENTER":99.2308,"MEAN_ANOMALY":260.9061,"EPHEMERIS_TYPE":0,"NORAD_CAT_ID":48229,"ELEMENT_SET_NO":999,"REV_AT_EPOCH":25187,"BSTAR":0.000046822,"MEAN_MOTION_DOT":3e-7,"MEAN_MOTION_DDOT":0},{"OBJECT_NAME":"ONEWEB-0181","OBJECT_ID":"2021-031W","EPOCH":"2026-07-13T17:40:03.582912","CLASSIFICATION_TYPE":"U","MEAN_MOTION":13.14501247,"ECCENTRICITY":0.0002266,"INCLINATION":87.896,"RA_OF_ASC_NODE":284.434,"ARG_OF_PERICENTER":98.6431,"MEAN_ANOMALY":261.4955,"EPHEMERIS_TYPE":0,"NORAD_CAT_ID":48230,"ELEMENT_SET_NO":999,"REV_AT_EPOCH":25172,"BSTAR":-0.00081614,"MEAN_MOTION_DOT":-0.0000029,"MEAN_MOTION_DDOT":0},{"OBJECT_NAME":"ONEWEB-0188","OBJECT_ID":"2021-031X","EPOCH":"2026-07-13T18:34:53.123808","CLASSIFICATION_TYPE":"U","MEAN_MOTION":13.14502095,"ECCENTRICITY":0.0002056,"INCLINATION":87.8961,"RA_OF_ASC_NODE":284.4259,"ARG_OF_PERICENTER":98.0016,"MEAN_ANOMALY":262.1347,"EPHEMERIS_TYPE":0,"NORAD_CAT_ID":48231,"ELEMENT_SET_NO":999,"REV_AT_EPOCH":25163,"BSTAR":0.00060506,"MEAN_MOTION_DOT":0.00000237,"MEAN_MOTION_DDOT":0},{"OBJECT_NAME":"ONEWEB-0220","OBJECT_ID":"2021-031Y","EPOCH":"2026-07-13T17:42:21.517920","CLASSIFICATION_TYPE":"U","MEAN_MOTION":13.1449648,"ECCENTRICITY":0.0002159,"INCLINATION":87.8981,"RA_OF_ASC_NODE":284.4096,"ARG_OF_PERICENTER":94.0895,"MEAN_ANOMALY":266.0482,"EPHEMERIS_TYPE":0,"NORAD_CAT_ID":48232,"ELEMENT_SET_NO":999,"REV_AT_EPOCH":25189,"BSTAR":-0.0015502,"MEAN_MOTION_DOT":-0.00000562,"MEAN_MOTION_DDOT":0},{"OBJECT_NAME":"ONEWEB-0165","OBJECT_ID":"2021-031Z","EPOCH":"2026-07-13T18:23:28.479840","CLASSIFICATION_TYPE":"U","MEAN_MOTION":13.14503747,"ECCENTRICITY":0.000238,"INCLINATION":87.8964,"RA_OF_ASC_NODE":284.4162,"ARG_OF_PERICENTER":105.1757,"MEAN_ANOMALY":254.9636,"EPHEMERIS_TYPE":0,"NORAD_CAT_ID":48233,"ELEMENT_SET_NO":999,"REV_AT_EPOCH":25185,"BSTAR":0.00046019,"MEAN_MOTION_DOT":0.00000183,"MEAN_MOTION_DDOT":0},{"OBJECT_NAME":"ONEWEB-0199","OBJECT_ID":"2021-031AA","EPOCH":"2026-07-13T18:00:38.098944","CLASSIFICATION_TYPE":"U","MEAN_MOTION":13.14502204,"ECCENTRICITY":0.0001852,"INCLINATION":87.8971,"RA_OF_ASC_NODE":284.4066,"ARG_OF_PERICENTER":101.7566,"MEAN_ANOMALY":258.3772,"EPHEMERIS_TYPE":0,"NORAD_CAT_ID":48234,"ELEMENT_SET_NO":999,"REV_AT_EPOCH":25175,"BSTAR":-0.00028008,"MEAN_MOTION_DOT":-9.1e-7,"MEAN_MOTION_DDOT":0},{"OBJECT_NAME":"ONEWEB-0203","OBJECT_ID":"2021-031AB","EPOCH":"2026-07-13T17:46:55.641792","CLASSIFICATION_TYPE":"U","MEAN_MOTION":13.14501298,"ECCENTRICITY":0.0002061,"INCLINATION":87.8976,"RA_OF_ASC_NODE":284.4106,"ARG_OF_PERICENTER":105.3547,"MEAN_ANOMALY":254.7811,"EPHEMERIS_TYPE":0,"NORAD_CAT_ID":48235,"ELEMENT_SET_NO":999,"REV_AT_EPOCH":25176,"BSTAR":-0.00062665,"MEAN_MOTION_DOT":-0.0000022,"MEAN_MOTION_DDOT":0},{"OBJECT_NAME":"ONEWEB-0197","OBJECT_ID":"2021-031AC","EPOCH":"2026-07-13T17:10:11.481024","CLASSIFICATION_TYPE":"U","MEAN_MOTION":13.14501954,"ECCENTRICITY":0.0002035,"INCLINATION":87.8974,"RA_OF_ASC_NODE":284.3984,"ARG_OF_PERICENTER":89.269,"MEAN_ANOMALY":270.8673,"EPHEMERIS_TYPE":0,"NORAD_CAT_ID":48236,"ELEMENT_SET_NO":999,"REV_AT_EPOCH":25167,"BSTAR":0.00017158,"MEAN_MOTION_DOT":7.6e-7,"MEAN_MOTION_DDOT":0},{"OBJECT_NAME":"ONEWEB-0194","OBJECT_ID":"2021-031AD","EPOCH":"2026-07-13T18:30:18.849600","CLASSIFICATION_TYPE":"U","MEAN_MOTION":13.14503995,"ECCENTRICITY":0.0001904,"INCLINATION":87.8969,"RA_OF_ASC_NODE":284.4122,"ARG_OF_PERICENTER":106.1624,"MEAN_ANOMALY":253.9715,"EPHEMERIS_TYPE":0,"NORAD_CAT_ID":48237,"ELEMENT_SET_NO":999,"REV_AT_EPOCH":25185,"BSTAR":0.00055709,"MEAN_MOTION_DOT":0.00000219,"MEAN_MOTION_DDOT":0},{"OBJECT_NAME":"ONEWEB-0193","OBJECT_ID":"2021-031AE","EPOCH":"2026-07-13T18:53:09.604608","CLASSIFICATION_TYPE":"U","MEAN_MOTION":13.14501968,"ECCENTRICITY":0.0001803,"INCLINATION":87.8971,"RA_OF_ASC_NODE":284.399,"ARG_OF_PERICENTER":113.6878,"MEAN_ANOMALY":246.4441,"EPHEMERIS_TYPE":0,"NORAD_CAT_ID":48238,"ELEMENT_SET_NO":999,"REV_AT_EPOCH":25180,"BSTAR":0.00039773,"MEAN_MOTION_DOT":0.0000016,"MEAN_MOTION_DDOT":0},{"OBJECT_NAME":"ONEWEB-0191","OBJECT_ID":"2021-031AF","EPOCH":"2026-07-13T19:09:07.682976","CLASSIFICATION_TYPE":"U","MEAN_MOTION":13.14506172,"ECCENTRICITY":0.0001913,"INCLINATION":87.8977,"RA_OF_ASC_NODE":284.3976,"ARG_OF_PERICENTER":95.017,"MEAN_ANOMALY":265.1178,"EPHEMERIS_TYPE":0,"NORAD_CAT_ID":48239,"ELEMENT_SET_NO":999,"REV_AT_EPOCH":25166,"BSTAR":-0.000019601,"MEAN_MOTION_DOT":6e-8,"MEAN_MOTION_DDOT":0},{"OBJECT_NAME":"ONEWEB-0195","OBJECT_ID":"2021-031AG","EPOCH":"2026-07-13T18:36:01.811808","CLASSIFICATION_TYPE":"U","MEAN_MOTION":13.14503225,"ECCENTRICITY":0.0002503,"INCLINATION":87.8984,"RA_OF_ASC_NODE":284.4011,"ARG_OF_PERICENTER":95.3027,"MEAN_ANOMALY":264.8388,"EPHEMERIS_TYPE":0,"NORAD_CAT_ID":48240,"ELEMENT_SET_NO":999,"REV_AT_EPOCH":25164,"BSTAR":0.00063596,"MEAN_MOTION_DOT":0.00000249,"MEAN_MOTION_DDOT":0},{"OBJECT_NAME":"ONEWEB-0201","OBJECT_ID":"2021-031AH","EPOCH":"2026-07-13T18:19:05.625984","CLASSIFICATION_TYPE":"U","MEAN_MOTION":13.14502418,"ECCENTRICITY":0.0002031,"INCLINATION":87.8967,"RA_OF_ASC_NODE":284.4192,"ARG_OF_PERICENTER":92.1598,"MEAN_ANOMALY":267.9765,"EPHEMERIS_TYPE":0,"NORAD_CAT_ID":48241,"ELEMENT_SET_NO":999,"REV_AT_EPOCH":25187,"BSTAR":0.00030346,"MEAN_MOTION_DOT":0.00000125,"MEAN_MOTION_DDOT":0}]}
